[{"OBJECT_NAME":"STARLINK-3644","OBJECT_ID":"2022-025AH","EPOCH":"2026-03-09T07:36:50.280768","MEAN_MOTION":15.08844044,"ECCENTRICITY":0.00014332,"INCLINATION":53.2181,"RA_OF_ASC_NODE":40.793,"ARG_OF_PERICENTER":87.4978,"MEAN_ANOMALY":272.6179,"EPHEMERIS_TYPE":0,"CLASSIFICATION_TYPE":"U","NORAD_CAT_ID":51987,"ELEMENT_SET_NO":999,"REV_AT_EPOCH":22100,"BSTAR":-1.5496132e-5,"MEAN_MOTION_DOT":-5.35e-6,"MEAN_MOTION_DDOT":0},{"OBJECT_NAME":"TITAN 3C TRANSTAGE DEB","OBJECT_ID":"1965-082EA","EPOCH":"2026-03-09T23:10:17.723424","MEAN_MOTION":15.08375165,"ECCENTRICITY":0.00122709,"INCLINATION":32.3951,"RA_OF_ASC_NODE":291.2548,"ARG_OF_PERICENTER":351.0252,"MEAN_ANOMALY":9.0191,"EPHEMERIS_TYPE":0,"CLASSIFICATION_TYPE":"U","NORAD_CAT_ID":1835,"ELEMENT_SET_NO":999,"REV_AT_EPOCH":23237,"BSTAR":0.00035954995,"MEAN_MOTION_DOT":5.778e-5,"MEAN_MOTION_DDOT":0}]
